H1 CPF 01  gfz 2021 01 13 13  5132 tandemx   
H2 1003001  6202 36605    2021 01 13 12 59 42 2021 01 18 00 00 42   120 1 1  0 0 0
H9
10 0 59230  35982.000000  0   -1427013.812    697998.597  -6709779.721
10 0 59230  36102.000000  0   -1833325.550   1488316.944  -6478213.984
10 0 59230  36222.000000  0   -2194208.708   2259563.656  -6133608.900
10 0 59230  36342.000000  0   -2503842.958   2997502.755  -5681902.776
10 0 59230  36462.000000  0   -2757525.705   3688355.973  -5130896.610
10 0 59230  36582.000000  0   -2951745.552   4319060.584  -4490131.433
10 0 59230  36702.000000  0   -3084233.091   4877520.435  -3770733.279
10 0 59230  36822.000000  0   -3153986.266   5352843.159  -2985227.868
10 0 59230  36942.000000  0   -3161270.731   5735559.409  -2147330.143
10 0 59230  37062.000000  0   -3107595.598   6017821.604  -1271708.472
10 0 59230  37182.000000  0   -2995661.905   6193573.384   -373725.978
10 0 59230  37302.000000  0   -2829287.627   6258685.040    530831.975
10 0 59230  37422.000000  0   -2613310.479   6211054.952   1426043.450
10 0 59230  37542.000000  0   -2353466.247   6050667.222   2296141.934
10 0 59230  37662.000000  0   -2056249.067   5779605.267   3125803.034
10 0 59230  37782.000000  0   -1728758.454   5402023.840   3900420.909
10 0 59230  37902.000000  0   -1378536.544   4924080.339   4606370.059
10 0 59230  38022.000000  0   -1013398.755   4353826.523   5231247.583
10 0 59230  38142.000000  0    -641261.453   3701063.613   5764089.808
10 0 59230  38262.000000  0    -269973.479   2977165.505   6195561.163
10 0 59230  38382.000000  0      92847.141   2194872.684   6518112.181
10 0 59230  38502.000000  0     439967.292   1368063.526   6726105.487
10 0 59230  38622.000000  0     764681.452    511504.612   6815908.835
10 0 59230  38742.000000  0    1060939.745   -359413.202   6785953.536
10 0 59230  38862.000000  0    1323459.790  -1228950.310   6636761.296
10 0 59230  38982.000000  0    1547820.907  -2081302.519   6370935.962
10 0 59230  39102.000000  0    1730538.926  -2900888.258   5993121.571
10 0 59230  39222.000000  0    1869120.551  -3672635.396   5509925.980
10 0 59230  39342.000000  0    1962096.061  -4382261.579   4929810.161
10 0 59230  39462.000000  0    2009030.532  -5016542.419   4262945.748
10 0 59230  39582.000000  0    2010514.175  -5563565.997   3521042.474
10 0 59230  39702.000000  0    1968129.401  -6012966.100   2717143.625
10 0 59230  39822.000000  0    1884395.432  -6356126.799   1865395.654
10 0 59230  39942.000000  0    1762694.141  -6586355.104    980796.568
10 0 59230  40062.000000  0    1607176.537  -6699018.244     78926.442
10 0 59230  40182.000000  0    1422652.391  -6691641.749   -824334.734
10 0 59230  40302.000000  0    1214465.161  -6563962.591  -1713098.529
10 0 59230  40422.000000  0     988355.769  -6317934.629  -2571755.697
10 0 59230  40542.000000  0     750320.356  -5957690.788  -3385256.165
10 0 59230  40662.000000  0     506466.610  -5489462.787  -4139375.772
10 0 59230  40782.000000  0     262869.325  -4921460.700  -4820964.516
10 0 59230  40902.000000  0      25430.083  -4263716.335  -5418170.813
10 0 59230  41022.000000  0    -200255.523  -3527895.304  -5920639.909
10 0 59230  41142.000000  0    -409020.496  -2727081.402  -6319683.152
10 0 59230  41262.000000  0    -596236.536  -1875538.960  -6608416.778
10 0 59230  41382.000000  0    -757909.943   -988457.811  -6781869.328
10 0 59230  41502.000000  0    -890761.721    -81685.088  -6837058.750
10 0 59230  41622.000000  0    -992290.591    828552.982  -6773037.171
10 0 59230  41742.000000  0   -1060818.557   1725933.655  -6590904.858
10 0 59230  41862.000000  0   -1095518.224   2594322.826  -6293793.184
10 0 59230  41982.000000  0   -1096421.373   3418058.789  -5886818.067
10 0 59230  42102.000000  0   -1064409.157   4182232.442  -5377001.397
10 0 59230  42222.000000  0   -1001183.231   4872957.415  -4773161.113
10 0 59230  42342.000000  0    -909219.042   5477627.515  -4085770.171
10 0 59230  42462.000000  0    -791701.355   5985154.899  -3326784.143
10 0 59230  42582.000000  0    -652442.926   6386183.381  -2509440.739
10 0 59230  42702.000000  0    -495787.880   6673273.356  -1648033.584
10 0 59230  42822.000000  0    -326502.268   6841052.119   -757662.584
10 0 59230  42942.000000  0    -149653.416   6886325.676    146033.508
10 0 59230  43062.000000  0      29518.802   6808148.573   1047158.084
10 0 59230  43182.000000  0     205734.898   6607848.416   1929845.784
10 0 59230  43302.000000  0     373808.940   6289002.457   2778551.364
10 0 59230  43422.000000  0     528778.913   5857369.449   3578330.305
10 0 59230  43542.000000  0     666032.018   5320780.116   4315107.126
10 0 59230  43662.000000  0     781421.517   4688988.346   4975930.252
10 0 59230  43782.000000  0     871369.961   3973478.135   5549200.002
10 0 59230  43902.000000  0     932960.238   3187246.812   6024866.889
10 0 59230  44022.000000  0     964010.157   2344561.198   6394603.896
10 0 59230  44142.000000  0     963128.784   1460692.679   6651946.524
10 0 59230  44262.000000  0     929754.788    551636.343   6792399.876
10 0 59230  44382.000000  0     864175.797   -366179.090   6813511.284
10 0 59230  44502.000000  0     767528.238  -1276186.984   6714911.692
10 0 59230  44622.000000  0     641777.536  -2161981.956   6498322.259
10 0 59230  44742.000000  0     489678.891  -3007615.798   6167526.779
10 0 59230  44862.000000  0     314719.295  -3797886.914   5728308.155
10 0 59230  44982.000000  0     121042.565  -4518614.413   5188350.943
10 0 59230  45102.000000  0     -86641.174  -5156896.113   4557114.373
10 0 59230  45222.000000  0    -303161.034  -5701348.571   3845673.971
10 0 59230  45342.000000  0    -523004.908  -6142320.696   3066529.917
10 0 59230  45462.000000  0    -740449.244  -6472074.958   2233387.794
10 0 59230  45582.000000  0    -949694.922  -6684931.730   1360915.091
10 0 59230  45702.000000  0   -1145007.972  -6777376.357    464478.820
10 0 59230  45822.000000  0   -1320861.458  -6748121.665   -440134.526
10 0 59230  45942.000000  0   -1472072.473  -6598123.966  -1337006.269
10 0 59230  46062.000000  0   -1593932.013  -6330554.346  -2210373.950
10 0 59230  46182.000000  0   -1682325.069  -5950726.457  -3044915.224
10 0 59230  46302.000000  0   -1733837.894  -5465982.058  -3826021.840
10 0 59230  46422.000000  0   -1745849.261  -4885537.111  -4540056.777
10 0 59230  46542.000000  0   -1716603.675  -4220294.348  -5174588.849
10 0 59230  46662.000000  0   -1645265.703  -3482628.321  -5718602.136
10 0 59230  46782.000000  0   -1531954.326  -2686147.605  -6162678.277
10 0 59230  46902.000000  0   -1377756.705  -1845438.394  -6499149.063
10 0 59230  47022.000000  0   -1184721.682   -975795.690  -6722216.880
10 0 59230  47142.000000  0    -955833.945    -92947.444  -6828044.177
10 0 59230  47262.000000  0    -694968.386    787224.714  -6814811.716
10 0 59230  47382.000000  0    -406825.158   1648963.657  -6682745.993
10 0 59230  47502.000000  0     -96847.818   2476911.270  -6434115.718
10 0 59230  47622.000000  0     228875.586   3256376.293  -6073198.880
10 0 59230  47742.000000  0     563728.635   3973592.927  -5606217.503
10 0 59230  47862.000000  0     900696.051   4615963.476  -5041239.987
10 0 59230  47982.000000  0    1232505.166   5172283.581  -4388053.890
10 0 59230  48102.000000  0    1551777.826   5632945.762  -3658006.875
10 0 59230  48222.000000  0    1851189.057   5990114.999  -2863818.027
10 0 59230  48342.000000  0    2123629.216   6237873.812  -2019362.443
10 0 59230  48462.000000  0    2362366.306   6372332.736  -1139430.685
10 0 59230  48582.000000  0    2561204.017   6391701.372   -239467.012
10 0 59230  48702.000000  0    2714631.290   6296317.311    664707.335
10 0 59230  48822.000000  0    2817959.365   6088632.455   1557179.340
10 0 59230  48942.000000  0    2867442.802   5773157.354   2422232.402
10 0 59230  49062.000000  0    2860381.721   5356364.373   3244631.282
10 0 59230  49182.000000  0    2795202.695   4846551.782   4009897.714
10 0 59230  49302.000000  0    2671515.978   4253673.217   4704571.429
10 0 59230  49422.000000  0    2490145.155   3589133.294   5316450.536
10 0 59230  49542.000000  0    2253131.727   2865559.029   5834802.227
10 0 59230  49662.000000  0    1963716.538   2096554.140   6250546.487
10 0 59230  49782.000000  0    1626295.541   1296438.079   6556411.129
10 0 59230  49902.000000  0    1246351.233    479975.056   6747052.335
10 0 59230  50022.000000  0     830362.297   -337898.517   6819141.221
10 0 59230  50142.000000  0     385692.864  -1142346.234   6771419.887
10 0 59230  50262.000000  0     -79538.157  -1918901.286   6604722.400
10 0 59230  50382.000000  0    -556605.483  -2653726.591   6321960.735
10 0 59230  50502.000000  0   -1036340.317  -3333862.212   5928075.595
10 0 59230  50622.000000  0   -1509303.659  -3947454.437   5429953.919
10 0 59230  50742.000000  0   -1965970.433  -4483965.633   4836316.590
10 0 59230  50862.000000  0   -2396922.159  -4934362.317   4157573.427
10 0 59230  50982.000000  0   -2793043.029  -5291276.223   3405644.877
10 0 59230  51102.000000  0   -3145713.251  -5549132.459   2593752.707
10 0 59230  51222.000000  0   -3446995.603  -5704242.088   1736186.110
10 0 59230  51342.000000  0   -3689811.791  -5754858.471    848046.493
10 0 59230  51462.000000  0   -3868103.980  -5701194.671    -55024.840
10 0 59230  51582.000000  0   -3976977.220  -5545401.560   -957130.185
10 0 59230  51702.000000  0   -4012818.793  -5291506.392  -1842404.810
10 0 59230  51822.000000  0   -3973391.161  -4945312.780  -2695304.622
10 0 59230  51942.000000  0   -3857896.248  -4514265.576  -3500885.310
10 0 59230  52062.000000  0   -3667009.615  -4007285.125  -4245066.589
10 0 59230  52182.000000  0   -3402884.937  -3434576.292  -4914876.627
10 0 59230  52302.000000  0   -3069129.291  -2807416.782  -5498673.237
10 0 59230  52422.000000  0   -2670750.339  -2137929.925  -5986337.707
99
